[
    {
        "CCSDS_OMM_VERS": "3.0",
        "COMMENT": "GENERATED VIA SPACE-TRACK.ORG API",
        "CREATION_DATE": "2025-05-04T02:26:54",
        "ORIGINATOR": "18 SPCS",
        "OBJECT_NAME": "BEIDOU 3M20",
        "OBJECT_ID": "2019-090B",
        "CENTER_NAME": "EARTH",
        "REF_FRAME": "TEME",
        "TIME_SYSTEM": "UTC",
        "MEAN_ELEMENT_THEORY": "SGP4",
        "EPOCH": "2025-05-03T21:34:18.425568",
        "MEAN_MOTION": "1.86231474",
        "ECCENTRICITY": "0.00172770",
        "INCLINATION": "56.2016",
        "RA_OF_ASC_NODE": "76.3906",
        "ARG_OF_PERICENTER": "303.3017",
        "MEAN_ANOMALY": "233.2246",
        "EPHEMERIS_TYPE": "0",
        "CLASSIFICATION_TYPE": "U",
        "NORAD_CAT_ID": "44865",
        "ELEMENT_SET_NO": "999",
        "REV_AT_EPOCH": "3659",
        "BSTAR": "0.00000000000000",
        "MEAN_MOTION_DOT": "-0.00000013",
        "MEAN_MOTION_DDOT": "0.0000000000000",
        "SEMIMAJOR_AXIS": "27906.141",
        "PERIOD": "773.231",
        "APOAPSIS": "21576.220",
        "PERIAPSIS": "21479.793",
        "OBJECT_TYPE": "PAYLOAD",
        "RCS_SIZE": "LARGE",
        "COUNTRY_CODE": "PRC",
        "LAUNCH_DATE": "2019-12-16",
        "SITE": "XSC",
        "DECAY_DATE": null,
        "FILE": "4718307",
        "GP_ID": "286800000",
        "TLE_LINE0": "0 BEIDOU 3M20",
        "TLE_LINE1": "1 44865U 19090B   25123.89882437 -.00000013  00000-0  00000-0 0  9993",
        "TLE_LINE2": "2 44865  56.2016  76.3906 0017277 303.3017 233.2246  1.86231474 36592"
    }
]